[{"OBJECT_NAME":"GAOFEN-9 05","OBJECT_ID":"2020-058A","EPOCH":"2026-03-10T00:01:50.876256","MEAN_MOTION":15.30293976,"ECCENTRICITY":0.0010522,"INCLINATION":97.2228,"RA_OF_ASC_NODE":111.963,"ARG_OF_PERICENTER":91.0204,"MEAN_ANOMALY":269.2242,"EPHEMERIS_TYPE":0,"CLASSIFICATION_TYPE":"U","NORAD_CAT_ID":46232,"ELEMENT_SET_NO":999,"REV_AT_EPOCH":30843,"BSTAR":0.00025120304,"MEAN_MOTION_DOT":7.299e-5,"MEAN_MOTION_DDOT":0},{"OBJECT_NAME":"STARLINK-31676","OBJECT_ID":"2024-100R","EPOCH":"2026-03-09T05:12:36.074016","MEAN_MOTION":15.27566795,"ECCENTRICITY":0.00012829,"INCLINATION":42.999,"RA_OF_ASC_NODE":128.1434,"ARG_OF_PERICENTER":163.6464,"MEAN_ANOMALY":196.443,"EPHEMERIS_TYPE":0,"CLASSIFICATION_TYPE":"U","NORAD_CAT_ID":59900,"ELEMENT_SET_NO":999,"REV_AT_EPOCH":10097,"BSTAR":2.6887241e-5,"MEAN_MOTION_DOT":4.78e-6,"MEAN_MOTION_DDOT":0}]
